STARLINK-36739          
1 67802U 26032F   26062.95586830  .00385735  00000+0  19129-2 0  9990
2 67802  97.2838 249.2042 0002289  58.8459 301.3034 15.80975322  3880
STARLINK-36768          
1 67803U 26032G   26062.75002315 -.00039016  00000+0 -26184-3 0  9990
2 67803  97.2837 248.9661 0001589  96.2701 125.0536 15.75194763  3829
STARLINK-36792          
1 67804U 26032H   26062.75002315 -.00105106  00000+0 -70963-3 0  9999
2 67804  97.2838 248.9596 0001681  73.8797 133.3525 15.75281679  3763
STARLINK-36782          
1 67805U 26032J   26062.95413947  .00374863  00000+0  18599-2 0  9991
2 67805  97.2835 249.2059 0001910  67.5545 292.5925 15.80991803  3883
STARLINK-36389          
1 67806U 26032K   26062.75002315  .00051829  00000+0  34689-3 0  9996
2 67806  97.2839 248.9862 0001773  90.1831 181.1479 15.75146342  3828
STARLINK-36382          
1 67807U 26032L   26062.75002315 -.01149787  00000+0 -83183-2 0  9993
2 67807  97.2840 248.9901 0001850  82.6328 200.1828 15.76047276  3768
STARLINK-36811          
1 67808U 26032M   26062.95083076  .00304321  00000+0  15246-2 0  9998
2 67808  97.2833 249.2099 0001690  56.0747 304.0682 15.80961629  3882
STARLINK-36795          
1 67809U 26032N   26062.75002315 -.00088474  00000+0 -59779-3 0  9994
2 67809  97.2837 248.9742 0001492  84.4332 158.8864 15.75214928  3821
STARLINK-36807          
1 67810U 26032P   26062.94876862  .00280824  00000+0  14110-2 0  9993
2 67810  97.2831 249.2117 0001598  55.3054 304.8365 15.80957660  3880
STARLINK-36733          
1 67811U 26032Q   26062.94752101  .00319478  00000+0  15954-2 0  9998
2 67811  97.2829 249.2128 0000957 148.9287 211.2038 15.80992413  3888
STARLINK-36377          
1 67812U 26032R   26062.94435484  .00327797  00000+0  16371-2 0  9998
2 67812  97.2832 249.2175 0001400  82.3885 277.7542 15.80968468  3884
STARLINK-36732          
1 67813U 26032S   26062.94532857  .00378853  00000+0  18797-2 0  9994
2 67813  97.2834 249.2154 0001803  65.3243 294.8213 15.80981953  3889
STARLINK-36767          
1 67814U 26032T   26062.75002315 -.00049974  00000+0 -33594-3 0  9999
2 67814  97.2836 248.9806 0001546  82.5321 178.7764 15.75203112  3827
STARLINK-36797          
1 67815U 26032U   26062.75002315 -.00039037  00000+0 -26200-3 0  9995
2 67815  97.2847 249.0015 0001329 105.0849 206.2325 15.75193473  3760
STARLINK-36343          
1 67816U 26032V   26062.94172447  .00344497  00000+0  17174-2 0  9997
2 67816  97.2838 249.2198 0001780  64.4700 295.6753 15.80965226  3889
STARLINK-36756          
1 67817U 26032W   26062.75002315 -.00521744  00000+0 -36670-2 0  9999
2 67817  97.2845 249.0218 0001085  81.1440 280.0089 15.75490508  3828
