[{"OBJECT_NAME":"STARLINK-36739","OBJECT_ID":"2026-032F","EPOCH":"2026-03-03T22:56:27.021120","MEAN_MOTION":15.80975322,"ECCENTRICITY":0.00022892,"INCLINATION":97.2838,"RA_OF_ASC_NODE":249.2042,"ARG_OF_PERICENTER":58.8459,"MEAN_ANOMALY":301.3034,"EPHEMERIS_TYPE":0,"CLASSIFICATION_TYPE":"U","NORAD_CAT_ID":67802,"ELEMENT_SET_NO":999,"REV_AT_EPOCH":388,"BSTAR":0.0019128903,"MEAN_MOTION_DOT":0.00385735,"MEAN_MOTION_DDOT":0},{"OBJECT_NAME":"STARLINK-36768","OBJECT_ID":"2026-032G","EPOCH":"2026-03-03T18:00:02.000160","MEAN_MOTION":15.75194763,"ECCENTRICITY":0.00015897,"INCLINATION":97.2837,"RA_OF_ASC_NODE":248.9661,"ARG_OF_PERICENTER":96.2701,"MEAN_ANOMALY":125.0536,"EPHEMERIS_TYPE":0,"CLASSIFICATION_TYPE":"U","NORAD_CAT_ID":67803,"ELEMENT_SET_NO":999,"REV_AT_EPOCH":382,"BSTAR":-0.00026183934,"MEAN_MOTION_DOT":-0.00039016,"MEAN_MOTION_DDOT":0},{"OBJECT_NAME":"STARLINK-36792","OBJECT_ID":"2026-032H","EPOCH":"2026-03-03T18:00:02.000160","MEAN_MOTION":15.75281679,"ECCENTRICITY":0.0001681,"INCLINATION":97.2838,"RA_OF_ASC_NODE":248.9596,"ARG_OF_PERICENTER":73.8797,"MEAN_ANOMALY":133.3525,"EPHEMERIS_TYPE":0,"CLASSIFICATION_TYPE":"U","NORAD_CAT_ID":67804,"ELEMENT_SET_NO":999,"REV_AT_EPOCH":376,"BSTAR":-0.00070962906,"MEAN_MOTION_DOT":-0.00105106,"MEAN_MOTION_DDOT":0},{"OBJECT_NAME":"STARLINK-36782","OBJECT_ID":"2026-032J","EPOCH":"2026-03-03T22:53:57.650208","MEAN_MOTION":15.80991803,"ECCENTRICITY":0.00019103,"INCLINATION":97.2835,"RA_OF_ASC_NODE":249.2059,"ARG_OF_PERICENTER":67.5545,"MEAN_ANOMALY":292.5925,"EPHEMERIS_TYPE":0,"CLASSIFICATION_TYPE":"U","NORAD_CAT_ID":67805,"ELEMENT_SET_NO":999,"REV_AT_EPOCH":388,"BSTAR":0.0018599491,"MEAN_MOTION_DOT":0.00374863,"MEAN_MOTION_DDOT":0},{"OBJECT_NAME":"STARLINK-36389","OBJECT_ID":"2026-032K","EPOCH":"2026-03-03T18:00:02.000160","MEAN_MOTION":15.75146342,"ECCENTRICITY":0.00017735,"INCLINATION":97.2839,"RA_OF_ASC_NODE":248.9862,"ARG_OF_PERICENTER":90.1831,"MEAN_ANOMALY":181.1479,"EPHEMERIS_TYPE":0,"CLASSIFICATION_TYPE":"U","NORAD_CAT_ID":67806,"ELEMENT_SET_NO":999,"REV_AT_EPOCH":382,"BSTAR":0.00034688608,"MEAN_MOTION_DOT":0.00051829,"MEAN_MOTION_DDOT":0},{"OBJECT_NAME":"STARLINK-36382","OBJECT_ID":"2026-032L","EPOCH":"2026-03-03T18:00:02.000160","MEAN_MOTION":15.76047276,"ECCENTRICITY":0.00018505,"INCLINATION":97.284,"RA_OF_ASC_NODE":248.9901,"ARG_OF_PERICENTER":82.6328,"MEAN_ANOMALY":200.1828,"EPHEMERIS_TYPE":0,"CLASSIFICATION_TYPE":"U","NORAD_CAT_ID":67807,"ELEMENT_SET_NO":999,"REV_AT_EPOCH":376,"BSTAR":-0.0083183192,"MEAN_MOTION_DOT":-0.01149787,"MEAN_MOTION_DDOT":0},{"OBJECT_NAME":"STARLINK-36811","OBJECT_ID":"2026-032M","EPOCH":"2026-03-03T22:49:11.777664","MEAN_MOTION":15.80961629,"ECCENTRICITY":0.00016903,"INCLINATION":97.2833,"RA_OF_ASC_NODE":249.2099,"ARG_OF_PERICENTER":56.0747,"MEAN_ANOMALY":304.0682,"EPHEMERIS_TYPE":0,"CLASSIFICATION_TYPE":"U","NORAD_CAT_ID":67808,"ELEMENT_SET_NO":999,"REV_AT_EPOCH":388,"BSTAR":0.0015245681,"MEAN_MOTION_DOT":0.00304321,"MEAN_MOTION_DDOT":0},{"OBJECT_NAME":"STARLINK-36795","OBJECT_ID":"2026-032N","EPOCH":"2026-03-03T18:00:02.000160","MEAN_MOTION":15.75214928,"ECCENTRICITY":0.00014928,"INCLINATION":97.2837,"RA_OF_ASC_NODE":248.9742,"ARG_OF_PERICENTER":84.4332,"MEAN_ANOMALY":158.8864,"EPHEMERIS_TYPE":0,"CLASSIFICATION_TYPE":"U","NORAD_CAT_ID":67809,"ELEMENT_SET_NO":999,"REV_AT_EPOCH":382,"BSTAR":-0.00059778761,"MEAN_MOTION_DOT":-0.00088474,"MEAN_MOTION_DDOT":0},{"OBJECT_NAME":"STARLINK-36807","OBJECT_ID":"2026-032P","EPOCH":"2026-03-03T22:46:13.608768","MEAN_MOTION":15.8095766,"ECCENTRICITY":0.00015982,"INCLINATION":97.2831,"RA_OF_ASC_NODE":249.2117,"ARG_OF_PERICENTER":55.3054,"MEAN_ANOMALY":304.8365,"EPHEMERIS_TYPE":0,"CLASSIFICATION_TYPE":"U","NORAD_CAT_ID":67810,"ELEMENT_SET_NO":999,"REV_AT_EPOCH":388,"BSTAR":0.0014109984,"MEAN_MOTION_DOT":0.00280824,"MEAN_MOTION_DDOT":0},{"OBJECT_NAME":"STARLINK-36733","OBJECT_ID":"2026-032Q","EPOCH":"2026-03-03T22:44:25.815264","MEAN_MOTION":15.80992413,"ECCENTRICITY":9.57e-5,"INCLINATION":97.2829,"RA_OF_ASC_NODE":249.2128,"ARG_OF_PERICENTER":148.9287,"MEAN_ANOMALY":211.2038,"EPHEMERIS_TYPE":0,"CLASSIFICATION_TYPE":"U","NORAD_CAT_ID":67811,"ELEMENT_SET_NO":999,"REV_AT_EPOCH":388,"BSTAR":0.0015953872,"MEAN_MOTION_DOT":0.00319478,"MEAN_MOTION_DDOT":0},{"OBJECT_NAME":"STARLINK-36377","OBJECT_ID":"2026-032R","EPOCH":"2026-03-03T22:39:52.258176","MEAN_MOTION":15.80968468,"ECCENTRICITY":0.00014,"INCLINATION":97.2832,"RA_OF_ASC_NODE":249.2175,"ARG_OF_PERICENTER":82.3885,"MEAN_ANOMALY":277.7542,"EPHEMERIS_TYPE":0,"CLASSIFICATION_TYPE":"U","NORAD_CAT_ID":67812,"ELEMENT_SET_NO":999,"REV_AT_EPOCH":388,"BSTAR":0.001637146,"MEAN_MOTION_DOT":0.00327797,"MEAN_MOTION_DDOT":0},{"OBJECT_NAME":"STARLINK-36732","OBJECT_ID":"2026-032S","EPOCH":"2026-03-03T22:41:16.388448","MEAN_MOTION":15.80981953,"ECCENTRICITY":0.00018037,"INCLINATION":97.2834,"RA_OF_ASC_NODE":249.2154,"ARG_OF_PERICENTER":65.3243,"MEAN_ANOMALY":294.8213,"EPHEMERIS_TYPE":0,"CLASSIFICATION_TYPE":"U","NORAD_CAT_ID":67813,"ELEMENT_SET_NO":999,"REV_AT_EPOCH":388,"BSTAR":0.0018797081,"MEAN_MOTION_DOT":0.00378853,"MEAN_MOTION_DDOT":0},{"OBJECT_NAME":"STARLINK-36767","OBJECT_ID":"2026-032T","EPOCH":"2026-03-03T18:00:02.000160","MEAN_MOTION":15.75203112,"ECCENTRICITY":0.00015466,"INCLINATION":97.2836,"RA_OF_ASC_NODE":248.9806,"ARG_OF_PERICENTER":82.5321,"MEAN_ANOMALY":178.7764,"EPHEMERIS_TYPE":0,"CLASSIFICATION_TYPE":"U","NORAD_CAT_ID":67814,"ELEMENT_SET_NO":999,"REV_AT_EPOCH":382,"BSTAR":-0.00033593573,"MEAN_MOTION_DOT":-0.00049974,"MEAN_MOTION_DDOT":0},{"OBJECT_NAME":"STARLINK-36797","OBJECT_ID":"2026-032U","EPOCH":"2026-03-03T18:00:02.000160","MEAN_MOTION":15.75193473,"ECCENTRICITY":0.00013296,"INCLINATION":97.2847,"RA_OF_ASC_NODE":249.0015,"ARG_OF_PERICENTER":105.0849,"MEAN_ANOMALY":206.2325,"EPHEMERIS_TYPE":0,"CLASSIFICATION_TYPE":"U","NORAD_CAT_ID":67815,"ELEMENT_SET_NO":999,"REV_AT_EPOCH":376,"BSTAR":-0.00026200481,"MEAN_MOTION_DOT":-0.00039037,"MEAN_MOTION_DDOT":0},{"OBJECT_NAME":"STARLINK-36343","OBJECT_ID":"2026-032V","EPOCH":"2026-03-03T22:36:04.994208","MEAN_MOTION":15.80965226,"ECCENTRICITY":0.00017805,"INCLINATION":97.2838,"RA_OF_ASC_NODE":249.2198,"ARG_OF_PERICENTER":64.47,"MEAN_ANOMALY":295.6753,"EPHEMERIS_TYPE":0,"CLASSIFICATION_TYPE":"U","NORAD_CAT_ID":67816,"ELEMENT_SET_NO":999,"REV_AT_EPOCH":388,"BSTAR":0.0017174451,"MEAN_MOTION_DOT":0.00344497,"MEAN_MOTION_DDOT":0},{"OBJECT_NAME":"STARLINK-36756","OBJECT_ID":"2026-032W","EPOCH":"2026-03-03T18:00:02.000160","MEAN_MOTION":15.75490508,"ECCENTRICITY":0.00010855,"INCLINATION":97.2845,"RA_OF_ASC_NODE":249.0218,"ARG_OF_PERICENTER":81.144,"MEAN_ANOMALY":280.0089,"EPHEMERIS_TYPE":0,"CLASSIFICATION_TYPE":"U","NORAD_CAT_ID":67817,"ELEMENT_SET_NO":999,"REV_AT_EPOCH":382,"BSTAR":-0.0036669911,"MEAN_MOTION_DOT":-0.00521744,"MEAN_MOTION_DDOT":0}]
